OBJECT_NAME,OBJECT_ID,EPOCH,MEAN_MOTION,ECCENTRICITY,INCLINATION,RA_OF_ASC_NODE,ARG_OF_PERICENTER,MEAN_ANOMALY,EPHEMERIS_TYPE,CLASSIFICATION_TYPE,NORAD_CAT_ID,ELEMENT_SET_NO,REV_AT_EPOCH,BSTAR,MEAN_MOTION_DOT,MEAN_MOTION_DDOT
ICEYE-X39,2024-149CG,2026-07-15T03:52:29.218656,15.00072792,.00069411,97.6789,272.8081,46.6165,313.5636,0,U,60546,999,10431,.18702104E-3,.2272E-4,0
UMBRA-10,2024-149CH,2026-07-15T04:55:46.280928,15.18849852,.00016875,97.6982,283.9364,167.4838,192.6438,0,U,60547,999,10498,.42232811E-3,.8732E-4,0
ICEYE-X33,2024-149CJ,2026-07-15T04:04:33.897792,15.00884823,.00019003,97.7366,275.1703,75.0570,285.0864,0,U,60548,999,10440,.22603742E-3,.2816E-4,0
ICEYE-X40,2024-149CK,2026-07-15T03:46:08.983488,14.98070105,.00039977,97.6795,272.2031,6.4770,353.6503,0,U,60549,999,10426,.12620525E-3,.1435E-4,0
SATELIOT_1,2024-149CL,2026-07-15T05:06:18.852480,14.98162763,.0005641,97.6732,271.6445,352.4627,7.6510,0,U,60550,999,10426,.98282751E-4,.1107E-4,0
BRO-14,2024-149CM,2026-07-15T03:35:56.497344,14.96235870,.00067346,97.6864,271.4249,18.0591,342.0868,0,U,60551,999,10417,.86103082E-4,.914E-5,0
SATELIOT_3,2024-149CN,2026-07-15T04:31:37.907616,14.98163739,.00050558,97.6818,272.4393,4.9579,355.1692,0,U,60552,999,10427,.34657526E-4,.353E-5,0
BRO-15,2024-149CP,2026-07-15T04:47:18.561696,14.96221528,.00077836,97.6791,271.0493,4.4425,355.6864,0,U,60553,999,10419,.24856679E-4,.223E-5,0
UM5-RIBAT,2024-149CQ,2026-07-15T03:14:10.170816,15.01217968,.00007217,97.6606,273.5562,351.8805,8.2407,0,U,60554,999,10438,.97940605E-4,.1198E-4,0
UM5-EOSAT,2024-149CR,2026-07-15T03:48:42.267456,15.01728593,.00091169,97.6776,274.5816,35.6763,324.5069,0,U,60555,999,10441,.15172289E-3,.1915E-4,0
LASARSAT,2024-247Q,2026-07-14T22:22:35.051232,15.48033197,.0007354,44.9739,106.1046,164.5391,195.5725,0,U,62391,999,8761,.40881166E-3,.21592E-3,0
CROCUBE,2024-247T,2026-07-15T02:05:50.091648,15.50189566,.0007544,44.9722,102.0802,171.5148,188.5872,0,U,62394,999,8767,.45369582E-3,.25934E-3,0
TEVEL2-4,2025-052D,2026-07-15T03:30:38.474496,15.35565165,.00035404,97.3870,92.5984,51.9364,308.2199,0,U,63213,999,7440,.31214817E-3,.10715E-3,0
TEVEL2-5,2025-052E,2026-07-15T04:04:51.940704,15.35379345,.00035943,97.3866,92.5619,53.2255,306.9318,0,U,63214,999,7440,.30277793E-3,.10329E-3,0
TEVEL2-6,2025-052F,2026-07-15T12:12:47.954304,15.35351129,.00036215,97.3871,92.8865,54.7007,305.4575,0,U,63215,999,7445,.343915E-3,.11734E-3,0
TEVEL2-1,2025-052H,2026-07-14T15:14:51.352512,15.34761887,.0004319,97.3847,91.6018,61.6960,298.4718,0,U,63217,999,7430,.2955724E-3,.9885E-4,0
TEVEL2-3,2025-052J,2026-07-15T05:10:33.241728,15.34836829,.00039996,97.3848,92.2082,62.2511,297.9137,0,U,63218,999,7439,.30743443E-3,.10309E-3,0
TEVEL2-2,2025-052K,2026-07-15T03:46:07.684032,15.34784029,.00043245,97.3840,92.1268,60.5637,299.6037,0,U,63219,999,7438,.30238262E-3,.10122E-3,0
TEVEL2-9,2025-052AD,2026-07-15T05:40:36.862464,15.32733619,.00076701,97.3907,91.5192,57.1732,303.0248,0,U,63237,999,7432,.29626782E-3,.9297E-4,0
TEVEL2-7,2025-052AE,2026-07-15T03:39:30.098880,15.32415280,.0007756,97.3906,91.3390,56.8395,303.3590,0,U,63238,999,7430,.29112625E-3,.9043E-4,0
TEVEL2-8,2025-052AF,2026-07-15T03:51:46.384992,15.32400496,.00077974,97.3906,91.3237,57.8563,302.3435,0,U,63239,999,7430,.28216258E-3,.8758E-4,0
FORESAIL-1 PRIME,2025-276DS,2026-07-15T04:39:41.435712,15.18938200,.00028967,97.4193,268.9548,44.4716,315.6751,0,U,66778,999,3465,.11894212E-3,.2417E-4,0
